*******************************************************************************
JPL/HORIZONS                2487 Juhani (1940 RL)          2023-Sep-04 11:18:12
Rec #:    2487 (+COV) Soln.date: 2023-Aug-22_22:04:55   # obs: 3763 (1929-2023)
 
IAU76/J2000 helio. ecliptic osc. elements (au, days, deg., period=Julian yrs):
 
  EPOCH=  2457294.5 ! 2015-Sep-29.00 (TDB)         Residual RMS= .2741
   EC= .1829763713913737   QR= 1.958365312793463   TP= 2457078.7846649736
   OM= 347.5042073090385   W=  37.25561497569479   IN= 2.811379238303205
   A= 2.396950644045041    MA= 57.29232626818512   ADIST= 2.835535975296619
   PER= 3.71105            N= .265592274           ANGMOM= .026182815
   DAN= 2.02219            DDN= 2.71162            L= 24.7265797
   B= 1.7014975            MOID= .96233499         TP= 2015-Feb-25.2846649736
 
Asteroid physical parameters (km, seconds, rotational period in hours):
   GM= n.a.                RAD= 4.7535             ROTPER= 344.6
   H= 13.29                G= .150                 B-V= n.a.
                           ALBEDO= .028            STYP= n.a.

ASTEROID comments: 
1: soln ref.= JPL#53, OCC=0
2: source=ORB
*******************************************************************************


*******************************************************************************
Ephemeris / API_USER Mon Sep  4 11:18:12 2023 Pasadena, USA      / Horizons
*******************************************************************************
Target body name: 2487 Juhani (1940 RL)           {source: JPL#53}
Center body name: Solar System Barycenter (0)     {source: DE441}
Center-site name: BODY CENTER
*******************************************************************************
Start time      : A.D. 2023-Aug-12 00:00:00.0000 TDB
Stop  time      : A.D. 2023-Aug-13 00:00:00.0000 TDB
Step-size       : 2880 minutes
*******************************************************************************
Center geodetic : 0.0, 0.0, 0.0                   {E-lon(deg),Lat(deg),Alt(km)}
Center cylindric: 0.0, 0.0, 0.0                   {E-lon(deg),Dxy(km),Dz(km)}
Center radii    : (undefined)
Small perturbers: Yes                             {source: SB441-N16}
Output units    : KM-S
Calendar mode   : Mixed Julian/Gregorian
Output type     : GEOMETRIC cartesian states
Output format   : 2 (position and velocity)
Reference frame : Ecliptic of J2000.0
*******************************************************************************
Initial IAU76/J2000 heliocentric ecliptic osculating elements (au, days, deg.):
  EPOCH=  2457294.5 ! 2015-Sep-29.00 (TDB)         Residual RMS= .2741         
   EC= .1829763713913737   QR= 1.958365312793463   TP= 2457078.7846649736      
   OM= 347.5042073090385   W=  37.25561497569479   IN= 2.811379238303205       
  Equivalent ICRF heliocentric cartesian coordinates (au, au/d):
   X=-4.542301718160131E-01  Y= 1.956878129542005E+00  Z= 9.568602060233634E-01
  VX=-1.192965908399820E-02 VY=-3.296322916197915E-04 VZ=-3.031745584369543E-04
Asteroid physical parameters (km, seconds, rotational period in hours):        
   GM= n.a.                RAD= 4.7535             ROTPER= 344.6               
   H= 13.29                G= .150                 B-V= n.a.                   
                           ALBEDO= .028            STYP= n.a.                  
*******************************************************************************
JDTDB
   X     Y     Z
   VX    VY    VZ
*******************************************************************************
$$SOE
2460168.500000000 = A.D. 2023-Aug-12 00:00:00.0000 TDB 
 X =-3.129645530425598E+08 Y = 2.193594049235549E+08 Z = 7.211378166116804E+06
 VX=-1.278835193404820E+01 VY=-1.272583687797473E+01 VZ=-7.445773804782965E-01
$$EOE
*******************************************************************************
 
TIME

  Barycentric Dynamical Time ("TDB" or T_eph) output was requested. This
continuous coordinate time is equivalent to the relativistic proper time
of a clock at rest in a reference frame co-moving with the solar system
barycenter but outside the system's gravity well. It is the independent
variable in the solar system relativistic equations of motion.

  TDB runs at a uniform rate of one SI second per second and is independent
of irregularities in Earth's rotation.
 
CALENDAR SYSTEM

  Mixed calendar mode was active such that calendar dates after AD 1582-Oct-15
(if any) are in the modern Gregorian system. Dates prior to 1582-Oct-5 (if any)
are in the Julian calendar system, which is automatically extended for dates
prior to its adoption on 45-Jan-1 BC.  The Julian calendar is useful for
matching historical dates. The Gregorian calendar more accurately corresponds
to the Earth's orbital motion and seasons. A "Gregorian-only" calendar mode is
available if such physical events are the primary interest.

REFERENCE FRAME AND COORDINATES

  Ecliptic at the standard reference epoch

    Reference epoch: J2000.0
    X-Y plane: adopted Earth orbital plane at the reference epoch
               Note: IAU76 obliquity of 84381.448 arcseconds wrt ICRF X-Y plane
    X-axis   : ICRF
    Z-axis   : perpendicular to the X-Y plane in the directional (+ or -) sense
               of Earth's north pole at the reference epoch.

  Symbol meaning:

    JDTDB    Julian Day Number, Barycentric Dynamical Time
      X      X-component of position vector (km)
      Y      Y-component of position vector (km)
      Z      Z-component of position vector (km)
      VX     X-component of velocity vector (km/sec)                           
      VY     Y-component of velocity vector (km/sec)                           
      VZ     Z-component of velocity vector (km/sec)                           

ABERRATIONS AND CORRECTIONS

 Geometric state vectors have NO corrections or aberrations applied.

Computations by ...

    Solar System Dynamics Group, Horizons On-Line Ephemeris System
    4800 Oak Grove Drive, Jet Propulsion Laboratory
    Pasadena, CA  91109   USA

    General site: https://ssd.jpl.nasa.gov/
    Mailing list: https://ssd.jpl.nasa.gov/email_list.html
    System news : https://ssd.jpl.nasa.gov/horizons/news.html
    User Guide  : https://ssd.jpl.nasa.gov/horizons/manual.html
    Connect     : browser        https://ssd.jpl.nasa.gov/horizons/app.html#/x
                  API            https://ssd-api.jpl.nasa.gov/doc/horizons.html
                  command-line   telnet ssd.jpl.nasa.gov 6775
                  e-mail/batch   https://ssd.jpl.nasa.gov/ftp/ssd/hrzn_batch.txt
                  scripts        https://ssd.jpl.nasa.gov/ftp/ssd/SCRIPTS
    Author      : Jon.D.Giorgini@jpl.nasa.gov
*******************************************************************************
